0 DELTA 2 R/B(2)
1 23018U 94013C   13283.24561924 -.00000222  00000-0  00000+0 0  9155
2 23018 025.4405 031.9687 6485275 165.8710 262.4260 02.02377539145218
0 DELTA 2 R/B(2)
1 23018U 94013C   13285.76073558 -.00000243  00000-0  00000+0 0  9169
2 23018 025.4476 031.4911 6485146 166.6845 294.8209 02.02377013145260
0 DELTA 2 R/B(2)
1 23018U 94013C   13290.13455991 -.00000178  00000-0  00000+0 0  9179
2 23018 025.4587 030.6629 6484922 168.0961 241.3733 02.02376432145348
0 DELTA 2 R/B(2)
1 23018U 94013C   13292.76933243 -.00000111  00000-0  00000+0 0  9189
2 23018 025.4642 030.1647 6484665 168.9459 000.9381 02.02376214145403
0 DELTA 2 R/B(2)
1 23018U 94013C   13294.74524019 -.00000095  00000-0  00000+0 0  9198
2 23018 025.4680 029.7920 6484505 169.5821 000.4866 02.02376158145440
